[{"OBJECT_NAME":"STELLA","OBJECT_ID":"1993-061B","EPOCH":"2026-03-09T22:50:14.153280","MEAN_MOTION":14.2746756,"ECCENTRICITY":0.00067535,"INCLINATION":98.784,"RA_OF_ASC_NODE":132.7988,"ARG_OF_PERICENTER":156.9855,"MEAN_ANOMALY":327.7404,"EPHEMERIS_TYPE":0,"CLASSIFICATION_TYPE":"U","NORAD_CAT_ID":22824,"ELEMENT_SET_NO":999,"REV_AT_EPOCH":69061,"BSTAR":7.617075e-6,"MEAN_MOTION_DOT":-2.6e-7,"MEAN_MOTION_DDOT":0},{"OBJECT_NAME":"CZ-6A DEB","OBJECT_ID":"2024-140AEY","EPOCH":"2026-03-09T15:00:41.019264","MEAN_MOTION":14.17201682,"ECCENTRICITY":0.0062676,"INCLINATION":89.001,"RA_OF_ASC_NODE":286.6415,"ARG_OF_PERICENTER":154.639,"MEAN_ANOMALY":205.7898,"EPHEMERIS_TYPE":0,"CLASSIFICATION_TYPE":"U","NORAD_CAT_ID":64658,"ELEMENT_SET_NO":999,"REV_AT_EPOCH":7129,"BSTAR":0.00053418,"MEAN_MOTION_DOT":1.112e-5,"MEAN_MOTION_DDOT":0}]
